COMMENT,ORIGINATOR,NORAD_CAT_ID,OBJECT_NAME,OBJECT_TYPE,CLASSIFICATION_TYPE,INTLDES,EPOCH,EPOCH_MICROSECONDS,MEAN_MOTION,ECCENTRICITY,INCLINATION,RA_OF_ASC_NODE,ARG_OF_PERICENTER,MEAN_ANOMALY,EPHEMERIS_TYPE,ELEMENT_SET_NO,REV_AT_EPOCH,BSTAR,MEAN_MOTION_DOT,MEAN_MOTION_DDOT,FILE,TLE_LINE0,TLE_LINE1,TLE_LINE2,OBJECT_ID,OBJECT_NUMBER,SEMIMAJOR_AXIS,PERIOD,APOGEE,PERIGEE
"GENERATED VIA SPACETRACK.ORG API","JSPOC","36415","YAOGAN 9C","PAYLOAD","U","10009C","2016-01-11 21:11:20","235840","13.45140422","0.0201054","63.4043","93.8933","2.2636","357.9255","0","999","28765","-9.7099e-05","-1.55e-06","0","1979167","0 YAOGAN 9C","1 36415U 10009C   16011.88287310 -.00000155  00000-0 -97099-4 0  9996","2 36415  63.4043  93.8933 0201054   2.2636 357.9255 13.45140422287657","2010-009C","36415","7468.328","107.052","1240.347","940.039"
"GENERATED VIA SPACETRACK.ORG API","JSPOC","38046","ZY 3","PAYLOAD","U","12001A","2016-01-11 21:11:23","895744","15.21452596","0.0003015","97.3476","86.8354","75.5986","14.0877","0","999","22254","0.00011616","2.542e-05","0","1979502","0 ZY 3","1 38046U 12001A   16011.88291546 +.00002542 +00000-0 +11616-3 0  9998","2 38046 097.3476 086.8354 0003015 075.5986 014.0877 15.21452596222544","2012-001A","38046","6879.595","94.646","503.534","499.386"
"GENERATED VIA SPACETRACK.ORG API","JSPOC","35500","COSMOS 2453","PAYLOAD","U","09036C","2016-01-11 21:11:28","883616","12.41446486","0.0006519","82.491","294.1877","164.7358","195.392","0","999","29542","0.00016948","3.3e-07","0","1979502","0 COSMOS 2453","1 35500U 09036C   16011.88297319 +.00000033 +00000-0 +16948-3 0  9994","2 35500 082.4910 294.1877 0006519 164.7358 195.3920 12.41446486295423","2009-036C","35500","7878.614","115.993","1505.615","1495.343"
"GENERATED VIA SPACETRACK.ORG API","JSPOC","27601","H-2A R/B","ROCKET BODY","U","02056E","2016-01-11 21:11:31","174080","14.3167714","0.0072932","98.4356","89.9832","43.55","87.1404","0","999","68307","5.3585e-05","1.05e-06","0","1979502","0 H-2A R/B","1 27601U 02056E   16011.88299970 +.00000105 +00000-0 +53585-4 0  9996","2 27601 098.4356 089.9832 0072932 043.5500 087.1404 14.31677140683074","2002-056E","27601","7164.267","100.581","838.382","733.881"
"GENERATED VIA SPACETRACK.ORG API","JSPOC","40341","CZ-4C R/B","ROCKET BODY","U","14080D","2016-01-11 21:11:45","573504","13.68967877","0.016963","63.4654","340.6042","13.9793","346.5857","0","999","5427","1.6587e-05","-8e-07","0","1979502","0 CZ-4C R/B","1 40341U 14080D   16011.88316636 -.00000080 +00000-0 +16587-4 0  9995","2 40341 063.4654 340.6042 0169630 013.9793 346.5857 13.68967877054276","2014-080D","40341","7381.415","105.188","1128.491","878.069"
"GENERATED VIA SPACETRACK.ORG API","JSPOC","23590","ATLAS 2 CENTAUR R/B","ROCKET BODY","U","95027B","2016-01-11 21:11:53","267424","3.86247645","0.6105659","26.7251","268.1656","109.141","323.4478","0","999","26283","0.0010753","3.481e-05","0","1979502","0 ATLAS 2 CENTAUR R/B","1 23590U 95027B   16011.88325541 +.00003481 +00000-0 +10753-2 0  9991","2 23590 026.7251 268.1656 6105659 109.1410 323.4478 03.86247645262833","1995-027B","23590","17158.972","372.817","21257.520","304.154"
"GENERATED VIA SPACETRACK.ORG API","JSPOC","12785","COSMOS 1300","PAYLOAD","U","81082A","2016-01-11 21:11:57","483744","15.1551219","1.88e-05","82.5034","229.2056","117.8631","11.0611","0","999","87246","0.00010387","1.996e-05","0","1979502","0 COSMOS 1300","1 12785U 81082A   16011.88330421 +.00001996 +00000-0 +10387-3 0  9997","2 12785 082.5034 229.2056 0000188 117.8631 011.0611 15.15512190872464","1981-082A","12785","6897.561","95.017","519.555","519.296"
"GENERATED VIA SPACETRACK.ORG API","JSPOC","26958","PROBA 1","PAYLOAD","U","01049B","2016-01-11 21:12:02","419776","14.94526274","0.007273","97.4942","353.7834","280.0009","79.3016","0","999","77349","5.8608e-05","6.06e-06","0","1979123","0 PROBA 1","1 26958U 01049B   16011.88336134  .00000606  00000-0  58608-4 0  9992","2 26958  97.4942 353.7834 0072730 280.0009  79.3016 14.94526274773498","2001-049B","26958","6961.980","96.351","634.480","533.211"
"GENERATED VIA SPACETRACK.ORG API","JSPOC","13763","COSMOS 1431","PAYLOAD","U","83002C","2016-01-11 21:12:03","366720","12.47697692","0.0012131","74.0239","60.7539","220.5089","192.8985","0","999","50205","9.4157e-05","-2e-08","0","1979502","0 COSMOS 1431","1 13763U 83002C   16011.88337230 -.00000002 +00000-0 +94157-4 0  9999","2 13763 074.0239 060.7539 0012131 220.5089 192.8985 12.47697692502058","1983-002C","13763","7852.276","115.412","1483.667","1464.616"
"GENERATED VIA SPACETRACK.ORG API","JSPOC","23753","SL-6 R/B","ROCKET BODY","U","95072C","2016-01-11 21:12:04","287744","14.26484925","0.0003294","98.8327","332.7275","343.6227","39.5311","0","999","4298","3.013e-05","2.7e-07","0","1979121","0 SL-6 R/B","1 23753U 95072C   16011.88338296  .00000027  00000-0  30130-4 0  9999","2 23753  98.8327 332.7275 0003294 343.6227  39.5311 14.26484925 42983","1995-072C","23753","7181.641","100.947","805.872","801.140"
"GENERATED VIA SPACETRACK.ORG API","JSPOC","38746","BREEZE-M R/B","ROCKET BODY","U","12044C","2016-01-11 21:12:09","569376","10.37739109","0.2465627","49.6896","336.2822","202.027","145.3457","0","999","12813","0.00036545","5.685e-05","0","1979166","0 BREEZE-M R/B","1 38746U 12044C   16011.88344409  .00005685  00000-0  36545-3 0  9998","2 38746  49.6896 336.2822 2465627 202.0270 145.3457 10.37739109128137","2012-044C","38746","8878.570","138.763","4689.559","311.311"
"GENERATED VIA SPACETRACK.ORG API","JSPOC","28982","ST5-C","PAYLOAD","U","06008C","2016-01-11 21:12:17","938080","11.71022073","0.1876662","105.5255","261.4737","342.7983","11.6926","0","999","8147","0.00073972","0.00025958","0","1979502","0 ST5-C","1 28982U 06008C   16011.88354095 +.00025958 +28836-5 +73972-3 0  9996","2 28982 105.5255 261.4737 1876662 342.7983 011.6926 11.71022073081475","2006-008C","28982","8191.406","122.969","3350.521","276.020"
"GENERATED VIA SPACETRACK.ORG API","JSPOC","25652","GLOBALSTAR M037","PAYLOAD","U","99012D","2016-01-11 21:12:29","302272","12.62283489","0.0002759","51.9985","231.404","103.0509","332.2297","0","999","77634","0.0003925","-3.3e-07","0","1979502","0 GLOBALSTAR M037","1 25652U 99012D   16011.88367248 -.00000033 +00000-0 +39250-3 0  9995","2 25652 051.9985 231.4040 0002759 103.0509 332.2297 12.62283489776344","1999-012D","25652","7791.670","114.078","1415.685","1411.385"
"GENERATED VIA SPACETRACK.ORG API","JSPOC","26034","CELESTIS 03/TAURUS R/B","ROCKET BODY","U","99070C","2016-01-11 21:12:29","240928","15.03060184","0.0015033","98.2863","159.762","105.7036","254.5847","0","999","86686","0.00050495","6.755e-05","0","1979502","0 CELESTIS 03/TAURUS R/B","1 26034U 99070C   16011.88367177 +.00006755 +00000-0 +50495-3 0  9995","2 26034 098.2863 159.7620 0015033 105.7036 254.5847 15.03060184866864","1999-070C","26034","6935.603","95.804","567.894","547.042"
"GENERATED VIA SPACETRACK.ORG API","JSPOC","40960","LINGQIAO VIDEO B","PAYLOAD","U","15057C","2016-01-11 21:12:37","548288","14.7304619","0.0017316","98.0317","88.7736","304.3207","55.6348","0","999","1424","3.7913e-05","1.93e-06","0","1979502","0 LINGQIAO VIDEO B","1 40960U 15057C   16011.88376792 +.00000193 +00000-0 +37913-4 0  9996","2 40960 098.0317 088.7736 0017316 304.3207 055.6348 14.73046190014242","2015-057C","40960","7029.497","97.756","663.534","639.189"
"GENERATED VIA SPACETRACK.ORG API","JSPOC","11027","JIKIKEN (EXOS-B)","PAYLOAD","U","78087A","2016-01-11 21:12:39","588192","7.04352949","0.4307045","31.1208","300.3667","2.4819","359.1238","0","999","39867","0.00063308","0.00148992","0","1979150","0 JIKIKEN (EXOS-B)","1 11027U 78087A   16011.88379153  .00148992 -13275-6  63308-3 0  9995","2 11027  31.1208 300.3667 4307045   2.4819 359.1238  7.04352949398677","1978-087A","11027","11495.863","204.442","10069.049","166.408"
"GENERATED VIA SPACETRACK.ORG API","JSPOC","13162","COSMOS 1359","PAYLOAD","U","82040C","2016-01-11 21:12:43","298208","12.51986968","0.0031549","74.0129","278.859","306.163","180.6992","0","999","54083","0.000154","8e-08","0","1979502","0 COSMOS 1359","1 13162U 82040C   16011.88383447 +.00000008 +00000-0 +15400-3 0  9992","2 13162 074.0129 278.8590 0031549 306.1630 180.6992 12.51986968540838","1982-040C","13162","7834.331","115.017","1480.913","1431.480"
"GENERATED VIA SPACETRACK.ORG API","JSPOC","8288","COSMOS 764","PAYLOAD","U","75086D","2016-01-11 21:12:54","342720","12.41042949","0.0029444","74.0108","286.5686","117.5867","356.082","0","999","82663","0.00016998","8e-08","0","1979502","0 COSMOS 764","1  8288U 75086D   16011.88396230 +.00000008 +00000-0 +16998-3 0  9994","2  8288 074.0108 286.5686 0029444 117.5867 356.0820 12.41042949826632","1975-086D","8288","7880.322","116.031","1525.389","1478.984"
"GENERATED VIA SPACETRACK.ORG API","JSPOC","39771","H-2A R/B","ROCKET BODY","U","14029F","2016-01-11 21:13:01","452576","14.92388567","0.0017839","98.148","137.0487","158.578","201.6188","0","999","8890","0.00013383","1.312e-05","0","1979502","0 H-2A R/B","1 39771U 14029F   16011.88404459 +.00001312 +00000-0 +13383-3 0  9992","2 39771 098.1480 137.0487 0017839 158.5780 201.6188 14.92388567088905","2014-029F","39771","6968.627","96.489","602.923","578.060"
"GENERATED VIA SPACETRACK.ORG API","JSPOC","23464","ASTRID","PAYLOAD","U","95002B","2016-01-11 21:13:04","476576","13.72476419","0.003981","82.9294","315.4223","291.2259","68.4645","0","999","4971","9.6225e-05","1.03e-06","0","1979502","0 ASTRID","1 23464U 95002B   16011.88407959 +.00000103 +00000-0 +96225-4 0  9996","2 23464 082.9294 315.4223 0039810 291.2259 068.4645 13.72476419049714","1995-002B","23464","7368.830","104.919","1020.031","961.360"
